#dP2024  3 25 12  0  0.00000000      96 __u+U IGS20 EXT  IAC
## 2307 129600.00000000   900.00000000 60394 0.5000000000000
+  120   C06C07C08C09C10C11C12C13C14C16C19C20C21C22C23C24C25
+        C26C27C28C29C30C32C33C34C35C36C37C38C39C40C41C42C43
+        C44C45C46E02E03E04E05E07E08E09E10E11E12E13E14E15E18
+        E19E21E24E25E26E27E30E31E33E34E36G01G02G03G04G05G06
+        G07G08G09G10G11G12G13G14G15G16G17G18G19G20G21G22G23
+        G24G25G26G27G28G29G30G31G32J02J03J04R01R02R03R04R05
+        R07R08R09R11R12R13R14R15R16R17R18R19R20R21R22R24R25
+        R26  0  0  0  0  0  0  0  0  0  0  0  0  0  0  0  0
++         9  7  8  9  9  8  8  8 10  8  9  8  9 10  8  6  7
++         8  9  9  9  8  7  8  7  9  9 10 10 10  9  9  7  8
++         9  8  8  7  7  8  7  7  6  7  8  9  8  7  7  7  7
++         8  7  7  8  7  8  8  6  7  7  8  8  7  8  8  7  9
++         6  7  8  8  9  6  7  8  8  8  8  9  6  8  7  7  7
++         8  6  6  7  8  7  7  7  6  9  7  9  9  7  7  7  7
++         7  8  9  6  8  8  7  7  9  7  8  9  8  8  8  8  8
++         7  0  0  0  0  0  0  0  0  0  0  0  0  0  0  0  0
%c M  cc GPS ccc cccc cccc cccc cccc ccccc ccccc ccccc ccccc
%c cc cc ccc ccc cccc cccc cccc cccc ccccc ccccc ccccc ccccc
%f  0.0000000  0.000000000  0.00000000000  0.000000000000000
%f  0.0000000  0.000000000  0.00000000000  0.000000000000000
%i    0    0    0    0      0      0      0      0         0
%i    0    0    0    0      0      0      0      0         0
/* IAC                                ULTRA-RAPID PREDICTION
/* S/V CLOCKS ARE ALIGNED TO GNSS TIME                      
/* G:C1WC2W R:C1PC2P E:C1XC5X C:C2IC6I J:C1CC2S             
/* PCV:IGS20_2290 OL/AL:FES2004  NONE     YN ORB:CoN CLK:CoN
*  2024 03 25 13  0  0.00000000
PC06 -17509.704608  29456.190111 -24711.574839    297.747971
PC07  -7161.339377  39213.963460 -13330.017833   -882.498376
PC08  -2888.797129  21269.708311  36312.763500     32.256149
PC09 -11871.190128  28274.653123 -28745.539536   -669.619226
PC10   -601.246648  41317.550354  -6404.066405     30.027099
PC11 -16993.480996  -3226.489709 -21833.345061    477.929513
PC12  -1439.043309 -18657.658336 -20665.631308   -219.899956
PC13   5239.516251  25424.488869  33461.134630    427.162597
PC14 -16991.879608 -13990.699175  17210.292510    487.470031
PC16 -22279.254432  28790.181234 -21275.206770   -417.447117
PC19  16831.190799   3747.500450 -21904.432912   -917.318248
PC20  14879.741659  20714.577917 -11264.960371   -292.344482
PC21  -3661.251677 -26711.354354  -7244.784967   -961.600506
PC22   9245.664654 -16416.237136 -20593.532697    -62.281102
PC23 -19441.629701   9146.763652 -17807.161768   -775.747352
PC24 -19576.027603 -14221.045827  13865.869014    950.092236
PC25 -27592.111313  -2674.304115  -3126.699194    358.221445
PC26   -971.469390 -16566.089620  22413.067867   -267.775739
PC27  -6242.183460  22637.471215  15066.188509    289.642003
PC28 -18499.078445  20892.447991    403.869324    221.094802
PC29  20964.709012  -6037.763288  17389.352746    259.293624
PC30  10117.870604  12750.477575  22658.171402    -44.010133
PC32   3762.759693  26641.891571   7383.602968   -589.287658
PC33 -16924.802872  -3775.946084  21877.710489   -962.151038
PC34 -11450.705845 -11379.322278 -22776.994753    397.777764
PC35  17775.948030 -21482.259688   -229.590846    402.843446
PC36  27545.260060   3521.715126   2831.751104     29.985407
PC37    255.789610  16552.389549 -22462.442717   -948.832341
PC38 -11705.823805  19443.010790  35584.950639    144.907765
PC39 -25518.227262  29515.139248 -16207.733318     -7.706247
PC40 -12067.851115  36585.814400 -16814.286021    -62.384254
PC41  -9780.493437  15635.855209  20995.360552   -911.902627
PC42 -14380.312645 -21831.798623   9861.274553   -445.361794
PC43 -20813.055357   5062.330221 -17913.089315     65.477029
PC44   5374.855648 -22955.470362 -14920.975065    423.828593
PC45  19413.269875  -9023.922949  17906.206008    -77.301530
PC46  20257.180120  13902.459647 -13279.275899   -134.513615
PE02  12724.378645  24215.640925 -11341.383852    114.064684
PE03   2469.243215  26321.354164 -13297.998533   -102.705676
PE04 -14578.631450  -9847.132804  23817.830176   -357.911096
PE05 -10871.809007  27106.733659   4813.975121   4732.354148
PE07  17973.844307 -11662.772633 -20416.859787   -110.873129
PE08  14110.547472  10613.757190 -23749.586702   -244.460964
PE09 -17869.190430  11546.093870  20580.831815   -383.139197
PE10 -28271.224122   1751.646257  -8607.220943   -612.006866
PE11 -28285.769794   8575.227002   1802.107612   3130.680998
PE12 -24109.749546  -4744.205771 -16526.777538   -964.267773
PE13  28404.509995  -8214.556533  -1166.175368    -20.692751
PE14 -14662.244774  18048.464837 -10275.555619     76.386640
PE15  23706.927846   5049.595815  16984.671554    -93.240747
PE18   9417.372998 -30166.965290   -458.123899    475.373311
PE19   -757.944220 -27230.983678  11593.455121   -367.081284
PE21   4638.561897 -17978.612062  23043.931395   -585.771040
PE24 -20262.544394    686.369218 -21580.611482   -670.608733
PE25  -5013.981431  17724.778074 -23174.109819      2.542283
PE26  15804.790486 -16681.201939 -18648.688919    406.595030
PE27  20064.170779  -1006.367233  21736.873251   -307.577294
PE30  23390.067289  16553.446978   7433.295051   -130.675903
PE31 -23467.398873 -16340.034083  -7636.908625    -19.132612
PE33  -4591.211282 -15311.832851 -24910.170999      9.508082
PE34   5224.341476  15137.236869  24890.786379   -101.935068
PE36 -16442.283183  16453.120207  18319.308679   -204.113711
PG01  -8428.336086 -12750.821780 -22113.874681    175.903501
PG02   2427.161880 -16026.739823 -20499.958808   -464.519942
PG03  -9199.178440 -21233.152537 -13295.346765    272.753539
PG04    580.458569 -24900.668070   9051.457895    323.255043
PG05  -3410.767642  15930.415623  20783.746350   -166.690213
PG06 -25945.324502   5346.473347  -2571.036633    352.458761
PG07 -18222.955818  -8274.954638  18187.994411    -92.314775
PG08   5566.088053 -25727.811682     84.751309     79.324450
PG09  -9644.171139 -16383.401530  18446.437737    136.832641
PG10  21283.155373   7492.028142 -14058.659238     -2.526302
PG11 -21730.553653  11904.196261   9526.145788   -617.274480
PG12   6593.365741  21808.782228 -13989.205556   -490.454942
PG13 -13620.329497  21610.070232   6625.744799    637.157644
PG14 -21752.421428 -10725.949916 -11028.935648    359.500166
PG15  -2228.864243  26352.998755   -299.963431    141.363378
PG16   9704.929739 -11620.314427  21459.093774   -332.867410
PG17 -14590.846931  -2947.613122 -21583.508235    712.296581
PG18  18790.752048   7206.713900  17441.142793   -582.300004
PG19 -16728.838813   6558.435567 -19618.560348    458.882413
PG20 -14282.088327   8262.283497  20846.831403    382.637253
PG21   7500.304588 -16680.998605 -18410.978323    129.962594
PG22 -19437.504175  -4307.167323 -17011.367981     10.563141
PG23  20977.574797  16135.194501  -3233.214504    185.197285
PG24  -3832.173354  17393.455429 -19999.896976   -451.060493
PG25  15928.261367  20672.621730  -5987.274338    492.197763
PG26  18653.333702  -2657.887874  18702.745679    175.240232
PG27  12684.859654 -20210.503755  10909.006241    -14.289813
PG28  25639.517240  -4352.839664  -5399.498948   -177.553967
PG29   6501.501492  18666.033523  17636.292006   -603.860011
PG30 -24841.016515   -485.932724   9893.044655   -414.819699
PG31  24494.459711  -9747.333683   4470.688511   -228.010170
PG32  15483.897838   -721.369267 -21336.858558   -616.830560
PJ02 -21805.300129  20282.527919 -25256.899384     -3.292564
PJ03 -30436.176165  28511.678842  11381.599852     -0.158562
PJ04 -26077.804339  27935.260621  23721.314084     50.606252
PR01  11603.275303   8275.607918 -21143.721475     80.630476
PR02   8771.818798 -10394.097508 -21513.859493    -22.641925
PR03   1191.082093 -23600.036017  -9481.538171     97.004454
PR04  -6536.926756 -23521.588725   7410.930662    229.097946
PR05 -10894.553717 -10868.218066  20354.277463    128.949125
PR07   -835.635614  23976.133608   8783.660070     78.732533
PR08   6790.260388  23422.247488  -7468.115524    -74.865488
PR09 -18763.764264   2172.043254 -17169.957541    177.298750
PR11  13500.122072  13753.809807 -16694.101481     30.091771
PR12  23913.506451   8801.927117   1336.527925     38.215278
PR13  20211.991817   -242.803899  15543.206362    -45.636055
PR14   2812.739029 -10847.971214  22922.176937     26.262457
PR15 -14690.660025 -13902.149656  15561.241770     81.054226
PR16 -23926.002423  -8837.834400  -1020.702583     24.284888
PR17  12839.207723 -17574.060656 -13325.026146     72.096484
PR18  -1561.197306 -11607.571679 -22639.801063    133.889842
PR19 -14133.771392  -1577.058052 -21178.714035   -270.658752
PR20 -21667.613282  12634.180888  -4773.388345   -110.316783
PR21 -12911.088431  17405.240580  13436.662708    -87.361150
PR22   2478.645866  11399.736496  22710.520560    114.466230
PR24  21101.222346 -13715.799206   4198.543000    -49.171097
PR25 -13258.582187  17156.981760  13427.471401    -24.938070
PR26   6528.846639  23769.201915  -6487.759082    -28.432716
EOF
